ONEWEB-0184             
1 48211U 21031B   26153.76576647  .00000063  00000+0  13585-3 0  9991
2 48211  87.8963 292.5744 0001083 111.4085 248.7160 13.14501399246392
ONEWEB-0179             
1 48212U 21031C   26153.77532546  .00000170  00000+0  50631-4 0  9996
2 48212  87.8979 290.4424 0218972 304.6872  53.3858 14.25513264246996
ONEWEB-0180             
1 48213U 21031D   26153.31223470  .00000166  00000+0  41442-3 0  9994
2 48213  87.8957 292.6610 0001864 115.6129 244.5194 13.14501681246263
ONEWEB-0218             
1 48214U 21031E   26153.79113564 -.00000192  00000+0 -55180-3 0  9994
2 48214  87.8959 292.5645 0001180 116.7525 243.3726 13.14501065246484
ONEWEB-0209             
1 48215U 21031F   26153.78003753 -.00000007  00000+0 -53350-4 0  9995
2 48215  87.8952 292.5852 0001888 101.7663 258.3678 13.14504815246488
ONEWEB-0198             
1 48216U 21031G   26153.84044007  .00000248  00000+0  63388-3 0  9996
2 48216  87.8942 292.5736 0001730 113.6186 246.5126 13.14501677246601
ONEWEB-0189             
1 48217U 21031H   26153.77687235  .00000004  00000+0 -23789-4 0  9998
2 48217  87.8956 292.5705 0001687 106.9699 253.1616 13.14502191246338
ONEWEB-0196             
1 48218U 21031J   26153.83078965  .00000237  00000+0  60489-3 0  9994
2 48218  87.8953 292.5689 0001819 103.8897 256.2435 13.14502313246340
ONEWEB-0183             
1 48219U 21031K   26153.80541704 -.00000177  00000+0 -51108-3 0  9991
2 48219  87.8951 292.5722 0002050  98.1662 261.9700 13.14502205246439
ONEWEB-0185             
1 48220U 21031L   26153.83157098  .00000218  00000+0  55402-3 0  9990
2 48220  87.8960 292.5595 0002123 104.9307 255.2058 13.14502201246362
ONEWEB-0187             
1 48221U 21031M   26153.81161994 -.00000085  00000+0 -26416-3 0  9996
2 48221  87.8945 292.5809 0001951 106.3350 253.7995 13.14502230246372
ONEWEB-0192             
1 48222U 21031N   26153.78162059 -.00000061  00000+0 -20008-3 0  9991
2 48222  87.8949 292.5767 0001748 101.0065 259.1262 13.14504054246282
ONEWEB-0219             
1 48223U 21031P   26153.83712503  .00000282  00000+0  72686-3 0  9995
2 48223  87.8949 292.5583 0001996 105.8458 254.2892 13.14503765246498
ONEWEB-0202             
1 48224U 21031Q   26153.81810395  .00000041  00000+0  77347-4 0  9995
2 48224  87.8954 292.5731 0001350 115.9239 244.2030 13.14501976246476
ONEWEB-0204             
1 48225U 21031R   26153.77607969  .00000028  00000+0  41854-4 0  9991
2 48225  87.8956 292.5764 0002199  97.0536 263.0844 13.14501452246366
ONEWEB-0205             
1 48226U 21031S   26153.82761696  .00000238  00000+0  60771-3 0  9997
2 48226  87.8958 292.5584 0001874 107.8866 252.2468 13.14504588246381
