[{"OBJECT_NAME":"ONEWEB-0184","OBJECT_ID":"2021-031B","EPOCH":"2026-06-02T18:22:42.223008","MEAN_MOTION":13.14501399,"ECCENTRICITY":0.0001083,"INCLINATION":87.8963,"RA_OF_ASC_NODE":292.5744,"ARG_OF_PERICENTER":111.4085,"MEAN_ANOMALY":248.716,"EPHEMERIS_TYPE":0,"CLASSIFICATION_TYPE":"U","NORAD_CAT_ID":48211,"ELEMENT_SET_NO":999,"REV_AT_EPOCH":24639,"BSTAR":0.00013585,"MEAN_MOTION_DOT":6.3e-07,"MEAN_MOTION_DDOT":0.0},{"OBJECT_NAME":"ONEWEB-0179","OBJECT_ID":"2021-031C","EPOCH":"2026-06-02T18:36:28.119744","MEAN_MOTION":14.25513264,"ECCENTRICITY":0.0218972,"INCLINATION":87.8979,"RA_OF_ASC_NODE":290.4424,"ARG_OF_PERICENTER":304.6872,"MEAN_ANOMALY":53.3858,"EPHEMERIS_TYPE":0,"CLASSIFICATION_TYPE":"U","NORAD_CAT_ID":48212,"ELEMENT_SET_NO":999,"REV_AT_EPOCH":24699,"BSTAR":5.0631000000000004e-05,"MEAN_MOTION_DOT":1.7e-06,"MEAN_MOTION_DDOT":0.0},{"OBJECT_NAME":"ONEWEB-0180","OBJECT_ID":"2021-031D","EPOCH":"2026-06-02T07:29:37.078080","MEAN_MOTION":13.14501681,"ECCENTRICITY":0.0001864,"INCLINATION":87.8957,"RA_OF_ASC_NODE":292.661,"ARG_OF_PERICENTER":115.6129,"MEAN_ANOMALY":244.5194,"EPHEMERIS_TYPE":0,"CLASSIFICATION_TYPE":"U","NORAD_CAT_ID":48213,"ELEMENT_SET_NO":999,"REV_AT_EPOCH":24626,"BSTAR":0.00041442000000000003,"MEAN_MOTION_DOT":1.66e-06,"MEAN_MOTION_DDOT":0.0},{"OBJECT_NAME":"ONEWEB-0218","OBJECT_ID":"2021-031E","EPOCH":"2026-06-02T18:59:14.119296","MEAN_MOTION":13.14501065,"ECCENTRICITY":0.000118,"INCLINATION":87.8959,"RA_OF_ASC_NODE":292.5645,"ARG_OF_PERICENTER":116.7525,"MEAN_ANOMALY":243.3726,"EPHEMERIS_TYPE":0,"CLASSIFICATION_TYPE":"U","NORAD_CAT_ID":48214,"ELEMENT_SET_NO":999,"REV_AT_EPOCH":24648,"BSTAR":-0.0005518,"MEAN_MOTION_DOT":-1.92e-06,"MEAN_MOTION_DDOT":0.0},{"OBJECT_NAME":"ONEWEB-0209","OBJECT_ID":"2021-031F","EPOCH":"2026-06-02T18:43:15.242592","MEAN_MOTION":13.14504815,"ECCENTRICITY":0.0001888,"INCLINATION":87.8952,"RA_OF_ASC_NODE":292.5852,"ARG_OF_PERICENTER":101.7663,"MEAN_ANOMALY":258.3678,"EPHEMERIS_TYPE":0,"CLASSIFICATION_TYPE":"U","NORAD_CAT_ID":48215,"ELEMENT_SET_NO":999,"REV_AT_EPOCH":24648,"BSTAR":-5.335e-05,"MEAN_MOTION_DOT":-7e-08,"MEAN_MOTION_DDOT":0.0},{"OBJECT_NAME":"ONEWEB-0198","OBJECT_ID":"2021-031G","EPOCH":"2026-06-02T20:10:14.022048","MEAN_MOTION":13.14501677,"ECCENTRICITY":0.000173,"INCLINATION":87.8942,"RA_OF_ASC_NODE":292.5736,"ARG_OF_PERICENTER":113.6186,"MEAN_ANOMALY":246.5126,"EPHEMERIS_TYPE":0,"CLASSIFICATION_TYPE":"U","NORAD_CAT_ID":48216,"ELEMENT_SET_NO":999,"REV_AT_EPOCH":24660,"BSTAR":0.00063388,"MEAN_MOTION_DOT":2.48e-06,"MEAN_MOTION_DDOT":0.0},{"OBJECT_NAME":"ONEWEB-0189","OBJECT_ID":"2021-031H","EPOCH":"2026-06-02T18:38:41.771040","MEAN_MOTION":13.14502191,"ECCENTRICITY":0.0001687,"INCLINATION":87.8956,"RA_OF_ASC_NODE":292.5705,"ARG_OF_PERICENTER":106.9699,"MEAN_ANOMALY":253.1616,"EPHEMERIS_TYPE":0,"CLASSIFICATION_TYPE":"U","NORAD_CAT_ID":48217,"ELEMENT_SET_NO":999,"REV_AT_EPOCH":24633,"BSTAR":-2.3789e-05,"MEAN_MOTION_DOT":4e-08,"MEAN_MOTION_DDOT":0.0},{"OBJECT_NAME":"ONEWEB-0196","OBJECT_ID":"2021-031J","EPOCH":"2026-06-02T19:56:20.225760","MEAN_MOTION":13.14502313,"ECCENTRICITY":0.0001819,"INCLINATION":87.8953,"RA_OF_ASC_NODE":292.5689,"ARG_OF_PERICENTER":103.8897,"MEAN_ANOMALY":256.2435,"EPHEMERIS_TYPE":0,"CLASSIFICATION_TYPE":"U","NORAD_CAT_ID":48218,"ELEMENT_SET_NO":999,"REV_AT_EPOCH":24634,"BSTAR":0.0006048900000000001,"MEAN_MOTION_DOT":2.37e-06,"MEAN_MOTION_DDOT":0.0},{"OBJECT_NAME":"ONEWEB-0183","OBJECT_ID":"2021-031K","EPOCH":"2026-06-02T19:19:48.032256","MEAN_MOTION":13.14502205,"ECCENTRICITY":0.000205,"INCLINATION":87.8951,"RA_OF_ASC_NODE":292.5722,"ARG_OF_PERICENTER":98.1662,"MEAN_ANOMALY":261.97,"EPHEMERIS_TYPE":0,"CLASSIFICATION_TYPE":"U","NORAD_CAT_ID":48219,"ELEMENT_SET_NO":999,"REV_AT_EPOCH":24643,"BSTAR":-0.00051108,"MEAN_MOTION_DOT":-1.77e-06,"MEAN_MOTION_DDOT":0.0},{"OBJECT_NAME":"ONEWEB-0185","OBJECT_ID":"2021-031L","EPOCH":"2026-06-02T19:57:27.732672","MEAN_MOTION":13.14502201,"ECCENTRICITY":0.0002123,"INCLINATION":87.896,"RA_OF_ASC_NODE":292.5595,"ARG_OF_PERICENTER":104.9307,"MEAN_ANOMALY":255.2058,"EPHEMERIS_TYPE":0,"CLASSIFICATION_TYPE":"U","NORAD_CAT_ID":48220,"ELEMENT_SET_NO":999,"REV_AT_EPOCH":24636,"BSTAR":0.00055402,"MEAN_MOTION_DOT":2.18e-06,"MEAN_MOTION_DDOT":0.0},{"OBJECT_NAME":"ONEWEB-0187","OBJECT_ID":"2021-031M","EPOCH":"2026-06-02T19:28:43.962816","MEAN_MOTION":13.1450223,"ECCENTRICITY":0.0001951,"INCLINATION":87.8945,"RA_OF_ASC_NODE":292.5809,"ARG_OF_PERICENTER":106.335,"MEAN_ANOMALY":253.7995,"EPHEMERIS_TYPE":0,"CLASSIFICATION_TYPE":"U","NORAD_CAT_ID":48221,"ELEMENT_SET_NO":999,"REV_AT_EPOCH":24637,"BSTAR":-0.00026416,"MEAN_MOTION_DOT":-8.5e-07,"MEAN_MOTION_DDOT":0.0},{"OBJECT_NAME":"ONEWEB-0192","OBJECT_ID":"2021-031N","EPOCH":"2026-06-02T18:45:32.018976","MEAN_MOTION":13.14504054,"ECCENTRICITY":0.0001748,"INCLINATION":87.8949,"RA_OF_ASC_NODE":292.5767,"ARG_OF_PERICENTER":101.0065,"MEAN_ANOMALY":259.1262,"EPHEMERIS_TYPE":0,"CLASSIFICATION_TYPE":"U","NORAD_CAT_ID":48222,"ELEMENT_SET_NO":999,"REV_AT_EPOCH":24628,"BSTAR":-0.00020008000000000002,"MEAN_MOTION_DOT":-6.1e-07,"MEAN_MOTION_DDOT":0.0},{"OBJECT_NAME":"ONEWEB-0219","OBJECT_ID":"2021-031P","EPOCH":"2026-06-02T20:05:27.602592","MEAN_MOTION":13.14503765,"ECCENTRICITY":0.0001996,"INCLINATION":87.8949,"RA_OF_ASC_NODE":292.5583,"ARG_OF_PERICENTER":105.8458,"MEAN_ANOMALY":254.2892,"EPHEMERIS_TYPE":0,"CLASSIFICATION_TYPE":"U","NORAD_CAT_ID":48223,"ELEMENT_SET_NO":999,"REV_AT_EPOCH":24649,"BSTAR":0.00072686,"MEAN_MOTION_DOT":2.82e-06,"MEAN_MOTION_DDOT":0.0},{"OBJECT_NAME":"ONEWEB-0202","OBJECT_ID":"2021-031Q","EPOCH":"2026-06-02T19:38:04.181280","MEAN_MOTION":13.14501976,"ECCENTRICITY":0.000135,"INCLINATION":87.8954,"RA_OF_ASC_NODE":292.5731,"ARG_OF_PERICENTER":115.9239,"MEAN_ANOMALY":244.203,"EPHEMERIS_TYPE":0,"CLASSIFICATION_TYPE":"U","NORAD_CAT_ID":48224,"ELEMENT_SET_NO":999,"REV_AT_EPOCH":24647,"BSTAR":7.7347e-05,"MEAN_MOTION_DOT":4.1e-07,"MEAN_MOTION_DDOT":0.0},{"OBJECT_NAME":"ONEWEB-0204","OBJECT_ID":"2021-031R","EPOCH":"2026-06-02T18:37:33.285216","MEAN_MOTION":13.14501452,"ECCENTRICITY":0.0002199,"INCLINATION":87.8956,"RA_OF_ASC_NODE":292.5764,"ARG_OF_PERICENTER":97.0536,"MEAN_ANOMALY":263.0844,"EPHEMERIS_TYPE":0,"CLASSIFICATION_TYPE":"U","NORAD_CAT_ID":48225,"ELEMENT_SET_NO":999,"REV_AT_EPOCH":24636,"BSTAR":4.1854e-05,"MEAN_MOTION_DOT":2.8e-07,"MEAN_MOTION_DDOT":0.0},{"OBJECT_NAME":"ONEWEB-0205","OBJECT_ID":"2021-031S","EPOCH":"2026-06-02T19:51:46.105344","MEAN_MOTION":13.14504588,"ECCENTRICITY":0.0001874,"INCLINATION":87.8958,"RA_OF_ASC_NODE":292.5584,"ARG_OF_PERICENTER":107.8866,"MEAN_ANOMALY":252.2468,"EPHEMERIS_TYPE":0,"CLASSIFICATION_TYPE":"U","NORAD_CAT_ID":48226,"ELEMENT_SET_NO":999,"REV_AT_EPOCH":24638,"BSTAR":0.00060771,"MEAN_MOTION_DOT":2.38e-06,"MEAN_MOTION_DDOT":0.0}]